NORAD_CAT_ID,OBJECT_NAME,OBJECT_TYPE,EPOCH,MEAN_MOTION,ECCENTRICITY,INCLINATION,RA_OF_ASC_NODE,ARG_OF_PERICENTER,MEAN_ANOMALY,BSTAR,MEAN_MOTION_DOT,MEAN_MOTION_DDOT,TLE_LINE0,TLE_LINE1,TLE_LINE2,SEMIMAJOR_AXIS,PERIOD,APOGEE,PERIGEE,DECAYED
52581.0,STARLINK-3915,PAYLOAD,2024-05-10 13:50:39,15.08845801,0.0001247,53.219,238.3951,93.5564,266.5571,0.00027376,4.072e-05,0.0,0 STARLINK-3915,1 52581U 22051AX  24131.57684776  .00004072  00000-0  27376-3 0  9993,2 52581  53.2190 238.3951 0001247  93.5564 266.5571 15.08845801110790,6917.863,95.437,540.59,538.865,0.0
52581.0,STARLINK-3915,PAYLOAD,2024-05-11 13:41:23,15.08973469,0.0001158,53.2176,233.9346,82.7106,277.4017,0.0038063,0.00061037,0.0,0 STARLINK-3915,1 52581U 22051AX  24132.57041187  .00061037  00000-0  38063-2 0  9995,2 52581  53.2176 233.9346 0001158  82.7106 277.4017 15.08973469110941,6917.472,95.429,540.139,538.536,0.0
52581.0,STARLINK-3915,PAYLOAD,2024-05-11 16:52:10,15.08876435,0.0001768,53.2177,233.3391,73.0423,287.0763,-0.00028848,-4.881e-05,0.0,0 STARLINK-3915,1 52581U 22051AX  24132.70289880 -.00004881  00000-0 -28848-3 0  9991,2 52581  53.2177 233.3391 0001768  73.0423 287.0763 15.08876435110960,6917.769,95.435,540.857,538.411,0.0
52581.0,STARLINK-3915,PAYLOAD,2024-05-12 05:35:18,15.08752201,0.0002591,53.2173,230.9614,93.9051,266.2237,-0.0033491,-0.00053073,0.0,0 STARLINK-3915,1 52581U 22051AX  24133.23285728 -.00053073  00000-0 -33491-2 0  9993,2 52581  53.2173 230.9614 0002591  93.9051 266.2237 15.08752201111049,6918.149,95.443,541.806,538.221,0.0
52581.0,STARLINK-3915,PAYLOAD,2024-05-12 11:56:52,15.08768766,0.0001588,53.2158,229.7687,99.7926,260.3246,0.0028472,0.00045228,0.0,0 STARLINK-3915,1 52581U 22051AX  24133.49783547  .00045228  00000-0  28472-2 0  9997,2 52581  53.2158 229.7687 0001588  99.7926 260.3246 15.08768766111080,6918.098,95.442,541.062,538.865,0.0
52581.0,STARLINK-3915,PAYLOAD,2024-05-13 13:23:03,15.08872506,0.0001278,53.2153,225.0133,90.272,269.8419,0.0028766,0.00045832,0.0,0 STARLINK-3915,1 52581U 22051AX  24134.55768055  .00045832  00000-0  28766-2 0  9999,2 52581  53.2153 225.0133 0001278  90.2720 269.8419 15.08872506111178,6917.781,95.435,540.53,538.762,0.0
52581.0,STARLINK-3915,PAYLOAD,2024-05-14 11:38:26,15.08873033,0.0001491,53.2157,220.8551,107.5192,252.5964,0.00075275,0.00011723,0.0,0 STARLINK-3915,1 52581U 22051AX  24135.48502571  .00011723  00000-0  75275-3 0  9991,2 52581  53.2157 220.8551 0001491 107.5192 252.5964 15.08873033111384,6917.779,95.435,540.676,538.613,0.0
52581.0,STARLINK-3915,PAYLOAD,2024-05-15 05:07:39,15.08867629,0.0002274,53.2155,217.5839,83.7745,276.3506,0.00024457,3.609e-05,0.0,0 STARLINK-3915,1 52581U 22051AX  24136.21365558  .00003609  00000-0  24457-3 0  9995,2 52581  53.2155 217.5839 0002274  83.7745 276.3506 15.08867629111495,6917.796,95.436,541.234,538.088,0.0
52581.0,STARLINK-3915,PAYLOAD,2024-05-15 13:04:35,15.08855372,0.0001405,53.2157,216.0963,84.3798,275.7354,9.5557e-05,1.234e-05,0.0,0 STARLINK-3915,1 52581U 22051AX  24136.54485224  .00001234  00000-0  95557-4 0  9996,2 52581  53.2157 216.0963 0001405  84.3798 275.7354 15.08855372111541,6917.833,95.437,540.67,538.726,0.0
52581.0,STARLINK-3915,PAYLOAD,2024-05-15 22:36:53,15.08859644,0.000143,53.2158,214.3111,82.5515,277.5639,0.00076242,0.00011873,0.0,0 STARLINK-3915,1 52581U 22051AX  24136.94228942  .00011873  00000-0  76242-3 0  9991,2 52581  53.2158 214.3111 0001430  82.5515 277.5639 15.08859644111534,6917.82,95.436,540.675,538.696,0.0
52581.0,STARLINK-3915,PAYLOAD,2024-05-16 11:19:58,15.0885338,0.0001325,53.2157,211.9289,99.8543,260.2599,0.00013423,1.85e-05,0.0,0 STARLINK-3915,1 52581U 22051AX  24137.47220552  .00001850  00000-0  13423-3 0  9995,2 52581  53.2157 211.9289 0001325  99.8543 260.2599 15.08853380111611,6917.839,95.437,540.621,538.788,0.0
52581.0,STARLINK-3915,PAYLOAD,2024-05-16 14:30:44,15.08868722,0.0001703,53.2169,211.3301,105.4658,254.6523,0.00040722,6.204e-05,0.0,0 STARLINK-3915,1 52581U 22051AX  24137.60467972  .00006204  00000-0  40722-3 0  9999,2 52581  53.2169 211.3301 0001703 105.4658 254.6523 15.08868722111704,6917.793,95.436,540.836,538.479,0.0
52581.0,STARLINK-3915,PAYLOAD,2024-05-17 11:10:45,15.08829845,0.0001786,53.2163,207.4707,100.7472,259.3721,-0.00043616,-7.221e-05,0.0,0 STARLINK-3915,1 52581U 22051AX  24138.46580529 -.00007221  00000-0 -43616-3 0  9995,2 52581  53.2163 207.4707 0001786 100.7472 259.3721 15.08829845111836,6917.911,95.438,541.012,538.541,0.0
52581.0,STARLINK-3915,PAYLOAD,2024-05-18 04:40:00,15.08847126,0.0002006,53.2176,204.1961,107.877,252.2441,0.00060292,9.322e-05,0.0,0 STARLINK-3915,1 52581U 22051AX  24139.19444701  .00009322  00000-0  60292-3 0  9998,2 52581  53.2176 204.1961 0002006 107.8770 252.2441 15.08847126111946,6917.859,95.437,541.111,538.336,0.0
52581.0,STARLINK-3915,PAYLOAD,2024-05-18 12:36:56,15.08852828,0.0001698,53.2167,202.7119,85.1381,274.9805,0.0010788,0.00016929,0.0,0 STARLINK-3915,1 52581U 22051AX  24139.52564929  .00016929  00000-0  10788-2 0  9995,2 52581  53.2167 202.7119 0001698  85.1381 274.9805 15.08852828111925,6917.841,95.437,540.881,538.532,0.0
52581.0,STARLINK-3915,PAYLOAD,2024-05-19 04:30:48,15.08830358,0.0002023,53.2167,199.7403,83.5285,276.5937,0.00023345,3.428e-05,0.0,0 STARLINK-3915,1 52581U 22051AX  24140.18805988  .00003428  00000-0  23345-3 0  9996,2 52581  53.2167 199.7403 0002023  83.5285 276.5937 15.08830358112091,6917.91,95.438,541.174,538.375,0.0
52581.0,STARLINK-3915,PAYLOAD,2024-05-19 10:52:21,15.08812904,0.000184,53.2169,198.5483,84.141,275.9792,-0.00016812,-2.961e-05,0.0,0 STARLINK-3915,1 52581U 22051AX  24140.45302544 -.00002961  00000-0 -16812-3 0  9990,2 52581  53.2169 198.5483 0001840  84.1410 275.9792 15.08812904112067,6917.963,95.439,541.101,538.555,0.0
52581.0,STARLINK-3915,PAYLOAD,2024-05-20 04:21:36,15.08845666,0.0001714,53.2159,195.2789,67.063,293.0543,0.0012014,0.00018887,0.0,0 STARLINK-3915,1 52581U 22051AX  24141.18167066  .00018887  00000-0  12014-2 0  9990,2 52581  53.2159 195.2789 0001714  67.0630 293.0543 15.08845666112249,6917.863,95.437,540.914,538.542,0.0
52581.0,STARLINK-3915,PAYLOAD,2024-05-20 10:43:08,15.08867926,0.0001841,53.2163,194.0898,74.5282,285.5913,0.0017221,0.00027247,0.0,0 STARLINK-3915,1 52581U 22051AX  24141.44662658  .00027247  00000-0  17221-2 0  9991,2 52581  53.2163 194.0898 0001841  74.5282 285.5913 15.08867926112216,6917.795,95.436,540.934,538.386,0.0
52581.0,STARLINK-3915,PAYLOAD,2024-05-21 04:12:22,15.08865418,0.0001749,53.2165,190.8186,90.6233,269.4959,0.0012572,0.00019791,0.0,0 STARLINK-3915,1 52581U 22051AX  24142.17526153  .00019791  00000-0  12572-2 0  9990,2 52581  53.2165 190.8186 0001749  90.6233 269.4959 15.08865418112398,6917.803,95.436,540.878,538.458,0.0
52581.0,STARLINK-3915,PAYLOAD,2024-05-21 08:58:32,15.08842817,0.0001619,53.2154,189.9272,71.4106,288.7062,0.0010849,0.00017022,0.0,0 STARLINK-3915,1 52581U 22051AX  24142.37398374  .00017022  00000-0  10849-2 0  9994,2 52581  53.2154 189.9272 0001619  71.4106 288.7062 15.08842817112424,6917.872,95.437,540.857,538.617,0.0
52581.0,STARLINK-3915,PAYLOAD,2024-05-22 10:24:42,15.08851546,0.0001829,53.2153,185.1676,80.7089,279.411,0.00062382,9.657e-05,0.0,0 STARLINK-3915,1 52581U 22051AX  24143.43382198  .00009657  00000-0  62382-3 0  9994,2 52581  53.2153 185.1676 0001829  80.7089 279.4110 15.08851546112582,6917.845,95.437,540.975,538.445,0.0
52581.0,STARLINK-3915,PAYLOAD,2024-05-23 10:15:29,15.0883898,0.0001625,53.2144,180.7095,88.5814,271.5364,5.789e-05,6.33e-06,0.0,0 STARLINK-3915,1 52581U 22051AX  24144.42742339  .00000633  00000-0  57890-4 0  9995,2 52581  53.2144 180.7095 0001625  88.5814 271.5364 15.08838980112732,6917.884,95.438,540.873,538.624,0.0
52581.0,STARLINK-3915,PAYLOAD,2024-05-24 08:30:52,15.08847566,0.0001572,53.2146,176.5452,93.6492,266.468,0.00024691,3.645e-05,0.0,0 STARLINK-3915,1 52581U 22051AX  24145.35477977  .00003645  00000-0  24691-3 0  9999,2 52581  53.2146 176.5452 0001572  93.6492 266.4680 15.08847566112806,6917.857,95.437,540.81,538.635,0.0
52581.0,STARLINK-3915,PAYLOAD,2024-05-24 19:38:34,15.08856886,0.0001263,53.215,174.4638,78.8006,281.3128,0.00035457,5.362e-05,0.0,0 STARLINK-3915,1 52581U 22051AX  24145.81845301  .00005362  00000-0  35457-3 0  9990,2 52581  53.2150 174.4638 0001263  78.8006 281.3128 15.08856886112940,6917.829,95.436,540.567,538.82,0.0
52581.0,STARLINK-3915,PAYLOAD,2024-05-25 05:10:54,15.08837202,0.0001699,53.2162,172.6789,99.5075,260.6109,6.7379e-05,7.84e-06,0.0,0 STARLINK-3915,1 52581U 22051AX  24146.21590278  .00000784  00000-0  67379-4 0  9997,2 52581  53.2162 172.6789 0001699  99.5075 260.6109 15.08837202113007,6917.889,95.438,540.929,538.579,0.0
52581.0,STARLINK-3915,PAYLOAD,2024-05-25 11:32:26,15.08838794,0.0001572,53.2152,171.4912,77.6277,282.4891,4.3619e-05,4.06e-06,0.0,0 STARLINK-3915,1 52581U 22051AX  24146.48086318  .00000406  00000-0  43619-4 0  9993,2 52581  53.2152 171.4912 0001572  77.6277 282.4891 15.08838794112974,6917.884,95.438,540.837,538.662,0.0
52581.0,STARLINK-3915,PAYLOAD,2024-05-26 11:23:13,15.08840936,0.000164,53.2162,167.0295,92.0004,268.1176,5.0296e-05,5.13e-06,0.0,0 STARLINK-3915,1 52581U 22051AX  24147.47446126  .00000513  00000-0  50296-4 0  9998,2 52581  53.2162 167.0295 0001640  92.0004 268.1176 15.08840936113198,6917.878,95.437,540.877,538.608,0.0
52581.0,STARLINK-3915,PAYLOAD,2024-05-27 04:52:28,15.08833231,0.0001628,53.2169,163.7583,83.6522,276.4655,0.00013427,1.849e-05,0.0,0 STARLINK-3915,1 52581U 22051AX  24148.20310688  .00001849  00000-0  13427-3 0  9990,2 52581  53.2169 163.7583 0001628  83.6522 276.4655 15.08833231113302,6917.901,95.438,540.892,538.64,0.0
52581.0,STARLINK-3915,PAYLOAD,2024-05-27 08:03:14,15.0883294,0.0001577,53.2168,163.163,86.4147,273.7026,9.8165e-05,1.274e-05,0.0,0 STARLINK-3915,1 52581U 22051AX  24148.33558745  .00001274  00000-0  98165-4 0  9997,2 52581  53.2168 163.1630 0001577  86.4147 273.7026 15.08832940113257,6917.902,95.438,540.858,538.676,0.0
